{
    "links": {
        "self": "http://www.neowsapp.com/rest/v1/neo/3893729?api_key=iIulBulltgU6a56xZRHN4H3l9WmuAYTsLGpBGhQ2"
    },
    "id": "3893729",
    "neo_reference_id": "3893729",
    "name": "(2019 WB5)",
    "designation": "2019 WB5",
    "nasa_jpl_url": "http://ssd.jpl.nasa.gov/sbdb.cgi?sstr=3893729",
    "absolute_magnitude_h": 24.2,
    "estimated_diameter": {
        "kilometers": {
            "estimated_diameter_min": 0.0384197891,
            "estimated_diameter_max": 0.0859092601
        },
        "meters": {
            "estimated_diameter_min": 38.4197891064,
            "estimated_diameter_max": 85.9092601232
        },
        "miles": {
            "estimated_diameter_min": 0.0238729428,
            "estimated_diameter_max": 0.0533815229
        },
        "feet": {
            "estimated_diameter_min": 126.0491808919,
            "estimated_diameter_max": 281.8545369825
        }
    },
    "is_potentially_hazardous_asteroid": false,
    "close_approach_data": [
        {
            "close_approach_date": "2019-12-06",
            "close_approach_date_full": "2019-Dec-06 03:02",
            "epoch_date_close_approach": 1575601320000,
            "relative_velocity": {
                "kilometers_per_second": "22.0431411982",
                "kilometers_per_hour": "79355.3083133587",
                "miles_per_hour": "49308.3025461534"
            },
            "miss_distance": {
                "astronomical": "0.0478160438",
                "lunar": "18.6004410382",
                "kilometers": "7153178.304306706",
                "miles": "4444778.8911603028"
            },
            "orbiting_body": "Earth"
        }
    ],
    "orbital_data": {
        "orbit_id": "1",
        "orbit_determination_date": "2019-11-30 21:12:04",
        "first_observation_date": "2019-11-27",
        "last_observation_date": "2019-11-30",
        "data_arc_in_days": 3,
        "observations_used": 11,
        "orbit_uncertainty": "9",
        "minimum_orbit_intersection": ".0469137",
        "jupiter_tisserand_invariant": "3.289",
        "epoch_osculation": "2458815.5",
        "eccentricity": ".7281623495687057",
        "semi_major_axis": "2.151571874721385",
        "inclination": "8.877403592297552",
        "ascending_node_longitude": "91.34695745869753",
        "orbital_period": "1152.742259604207",
        "perihelion_distance": ".5848782431583163",
        "perihelion_argument": "69.48997945641793",
        "aphelion_distance": "3.718265506284453",
        "perihelion_time": "2458867.710462399099",
        "mean_anomaly": "343.6947363497117",
        "mean_motion": ".3122987788472382",
        "equinox": "J2000",
        "orbit_class": {
            "orbit_class_type": "APO",
            "orbit_class_description": "Near-Earth asteroid orbits which cross the Earth’s orbit similar to that of 1862 Apollo",
            "orbit_class_range": "a (semi-major axis) > 1.0 AU; q (perihelion) < 1.017 AU"
        }
    },
    "is_sentry_object": false
}